[{"OBJECT_NAME":"ION SCV-015","OBJECT_ID":"2023-185H","EPOCH":"2026-03-09T22:36:51.209568","MEAN_MOTION":15.3163624,"ECCENTRICITY":0.00109059,"INCLINATION":97.5772,"RA_OF_ASC_NODE":155.3582,"ARG_OF_PERICENTER":92.3805,"MEAN_ANOMALY":267.8685,"EPHEMERIS_TYPE":0,"CLASSIFICATION_TYPE":"U","NORAD_CAT_ID":58469,"ELEMENT_SET_NO":999,"REV_AT_EPOCH":12588,"BSTAR":0.00030895808,"MEAN_MOTION_DOT":9.376e-5,"MEAN_MOTION_DDOT":0},{"OBJECT_NAME":"STARLINK-34643","OBJECT_ID":"2025-157V","EPOCH":"2026-03-09T23:21:36.766944","MEAN_MOTION":15.30226893,"ECCENTRICITY":0.00012292,"INCLINATION":53.1606,"RA_OF_ASC_NODE":344.6018,"ARG_OF_PERICENTER":107.1116,"MEAN_ANOMALY":253.0019,"EPHEMERIS_TYPE":0,"CLASSIFICATION_TYPE":"U","NORAD_CAT_ID":64923,"ELEMENT_SET_NO":999,"REV_AT_EPOCH":3616,"BSTAR":0.0012498126,"MEAN_MOTION_DOT":0.00036871,"MEAN_MOTION_DDOT":0}]
